INTELSAT 21 (IS-21)     
1 38749U 12045A   26160.47293218 -.00000268  00000+0  00000+0 0  9999
2 38749   0.0247 280.5498 0001705 177.4937 272.0574  1.00267497 50449
INTELSAT 23 (IS-23)     
1 38867U 12057A   26160.83037372 -.00000267  00000+0  00000+0 0  9999
2 38867   0.0185 298.0077 0000137 112.6044  93.5378  1.00268891 49889
FM-6                    
1 39360U 13058A   26159.62959519  .00000003  00000+0  00000+0 0  9998
2 39360   0.0107  82.6412 0002771  69.5183 215.1325  1.00255605 45982
INTELSAT 30 (IS-30)     
1 40271U 14062A   26160.45931153 -.00000133  00000+0  00000+0 0  9999
2 40271   0.0210  37.4356 0000875 356.8023 293.8423  1.00267702  6714
DIRECTV 14              
1 40333U 14078B   26160.05357880 -.00000109  00000+0  00000+0 0  9993
2 40333   0.0091   1.3268 0000235 206.1301 330.0282  1.00271044 41965
DIRECTV 15              
1 40663U 15026A   26160.03626279 -.00000086  00000+0  00000+0 0  9996
2 40663   0.0035  71.5412 0000541 190.7091 265.3619  1.00272723 40387
SKY MEXICO-1            
1 40664U 15026B   26160.41390508 -.00000217  00000+0  00000+0 0  9998
2 40664   0.0131 295.8908 0002147 161.2945 230.8166  1.00271354 40373
INTELSAT 34 (IS-34)     
1 40874U 15039A   26160.82994038 -.00000268  00000+0  00000+0 0  9994
2 40874   0.0123 320.1624 0000379  21.6434 159.6937  1.00270562 39564
INTELSAT 31 (IS-31)     
1 41581U 16035A   26160.45931213 -.00000134  00000+0  00000+0 0  9994
2 41581   0.0197 262.6352 0000920 341.1411  84.3698  1.00270432 36602
INTELSAT 36 (IS-36)     
1 41747U 16053A   26160.85445961 -.00000007  00000+0  00000+0 0  9991
2 41747   0.0109 353.2567 0001894 341.8083 299.2589  1.00270461 35884
INTELSAT 32E (IS-32E)   
1 41945U 17007B   26160.08652259 -.00000252  00000+0  00000+0 0  9998
2 41945   0.0023 348.0424 0000672 336.8096 280.6015  1.00274840 34145
INTELSAT 35E (IS-35E)   
1 42818U 17041A   26160.47761220 -.00000221  00000+0  00000+0 0  9994
2 42818   0.0189   7.5995 0001633  70.2855 317.4382  1.00271510 32738
INTELSAT 37E (IS-37E)   
1 42950U 17059A   26160.69476178 -.00000124  00000+0  00000+0 0  9991
2 42950   0.0188  12.8762 0002298  89.4990  27.8102  1.00269881 31992
AZERSPACE 2 (IS-38)     
1 43632U 18074A   26160.63596256  .00000154  00000+0  00000+0 0  9993
2 43632   0.0179 328.1038 0001363 108.5092  95.4531  1.00271653 28372
HORIZONS-3E             
1 43633U 18074B   26160.16142285 -.00000014  00000+0  00000+0 0  9997
2 43633   0.0093 158.1609 0000957 124.5481 201.9406  1.00270197 28266
AT&T T-16               
1 44333U 19034A   26160.67834545 -.00000098  00000+0  00000+0 0  9997
2 44333   0.0247  68.1337 0000640 190.5571 142.7032  1.00268740 25552
INTELSAT 39 (IS-39)     
1 44476U 19049B   26160.00679632  .00000051  00000+0  00000+0 0  9990
2 44476   0.0162 310.4453 0001155  11.0959   0.2561  1.00266551 25044
GALAXY 30 (G-30)        
1 46114U 20056C   26160.74486928  .00000054  00000+0  00000+0 0  9999
2 46114   0.0181 315.9250 0002141 118.6738 326.6745  1.00273387 21215
GALAXY 33 (G-33)        
1 54026U 22128A   26160.74330928  .00000096  00000+0  00000+0 0  9996
2 54026   0.0110 313.2581 0001824 132.3823 307.0828  1.00271514 13666
GALAXY 34 (G-34)        
1 54027U 22128B   26159.95980211  .00000075  00000+0  00000+0 0  9991
2 54027   0.0154 329.7482 0001861 136.9348   7.2031  1.00274719 13834
GALAXY 31 (G-31)        
1 54243U 22153A   26160.74556263  .00000030  00000+0  00000+0 0  9995
2 54243   0.0138 277.4263 0001261 160.8139 327.2867  1.00272103  7054
GALAXY 32 (G-32)        
1 54244U 22153B   26160.32382733 -.00000157  00000+0  00000+0 0  9990
2 54244   0.0091 331.9838 0002164  65.0548 246.2445  1.00270919 13063
GALAXY 35 (G-35)        
1 54741U 22170A   26160.45862207 -.00000145  00000+0  00000+0 0  9991
2 54741   0.0337 106.4075 0002031 335.1959 248.2408  1.00271145 12811
GALAXY 36 (G-36)        
1 54742U 22170B   26160.60941440 -.00000168  00000+0  00000+0 0  9991
2 54742   0.0021 112.9711 0002643 330.7721 304.6330  1.00270735 12699
GALAXY 37 (G-37)        
1 57493U 23112A   26160.67314542  .00000065  00000+0  00000+0 0  9993
2 57493   0.0179 356.1906 0001883  84.3210 292.8728  1.00271821 10466
